[{"OBJECT_NAME":"EXO-0","OBJECT_ID":"2023-174DK","EPOCH":"2026-03-09T17:03:04.419648","MEAN_MOTION":15.32821991,"ECCENTRICITY":0.00098779,"INCLINATION":97.3864,"RA_OF_ASC_NODE":148.9039,"ARG_OF_PERICENTER":157.1125,"MEAN_ANOMALY":203.0559,"EPHEMERIS_TYPE":0,"CLASSIFICATION_TYPE":"U","NORAD_CAT_ID":59175,"ELEMENT_SET_NO":999,"REV_AT_EPOCH":12979,"BSTAR":0.00036716083,"MEAN_MOTION_DOT":0.00011582,"MEAN_MOTION_DDOT":0},{"OBJECT_NAME":"STARLINK-35927","OBJECT_ID":"2025-271H","EPOCH":"2026-03-09T12:19:13.955808","MEAN_MOTION":15.30193227,"ECCENTRICITY":0.00012551,"INCLINATION":53.1598,"RA_OF_ASC_NODE":140.4708,"ARG_OF_PERICENTER":107.8236,"MEAN_ANOMALY":252.2902,"EPHEMERIS_TYPE":0,"CLASSIFICATION_TYPE":"U","NORAD_CAT_ID":66624,"ELEMENT_SET_NO":999,"REV_AT_EPOCH":1754,"BSTAR":0.0010929064,"MEAN_MOTION_DOT":0.00032143,"MEAN_MOTION_DDOT":0}]
