EXO-0                   
1 59175U 23174DK  26068.71046781  .00011582  00000+0  36716-3 0  9992
2 59175  97.3864 148.9039 0009878 157.1125 203.0559 15.32821991129797
STARLINK-35927          
1 66624U 25271H   26068.51335597  .00032143  00000+0  10929-2 0  9996
2 66624  53.1598 140.4708 0001255 107.8236 252.2902 15.30193227 17543
